{"type": "FeatureCollection", "features": [{"type": "Feature", "properties": {"norad_id": 2807, "name": "OPS 7218 (TRANSIT 16)", "group": "nnss", "lat": 22.67024548362643, "lon": 173.82466288996662, "alt_km": 1058.2031358638915, "timestamp": "2025-12-14T09:36:23.305126+00:00", "meta": {"OBJECT_NAME": "OPS 7218 (TRANSIT 16)", "OBJECT_ID": "1967-048A", "EPOCH": "2025-12-13T13:51:00.377280", "MEAN_MOTION": 13.50722326, "ECCENTRICITY": 0.00219939, "INCLINATION": 89.6732, "RA_OF_ASC_NODE": 353.9884, "ARG_OF_PERICENTER": 111.8379, "MEAN_ANOMALY": 4.7793, "EPHEMERIS_TYPE": 0, "CLASSIFICATION_TYPE": "U", "NORAD_CAT_ID": 2807, "ELEMENT_SET_NO": 999, "REV_AT_EPOCH": 88287, "BSTAR": 0.00018562902, "MEAN_MOTION_DOT": 1.3e-06, "MEAN_MOTION_DDOT": 0}, "tle": {"line1": "1 02807U 67048A   25347.57708770  .00000130  00000+0  18563-3 0  9993", "line2": "2 02807  89.6732 353.9884 0021993 111.8379   4.7793 13.50722326882872"}}, "geometry": {"type": "Point", "coordinates": [173.82466288996662, 22.67024548362643]}}, {"type": "Feature", "properties": {"norad_id": 2965, "name": "OPS 4947 (TRANSIT 17)", "group": "nnss", "lat": -57.97229712732986, "lon": -154.49024626611367, "alt_km": 1032.7168461121619, "timestamp": "2025-12-14T09:36:23.305148+00:00", "meta": {"OBJECT_NAME": "OPS 4947 (TRANSIT 17)", "OBJECT_ID": "1967-092A", "EPOCH": "2025-12-13T17:05:15.669024", "MEAN_MOTION": 13.53453686, "ECCENTRICITY": 0.00462407, "INCLINATION": 89.2495, "RA_OF_ASC_NODE": 24.3615, "ARG_OF_PERICENTER": 231.5837, "MEAN_ANOMALY": 254.6409, "EPHEMERIS_TYPE": 0, "CLASSIFICATION_TYPE": "U", "NORAD_CAT_ID": 2965, "ELEMENT_SET_NO": 999, "REV_AT_EPOCH": 87110, "BSTAR": 0.00022842145, "MEAN_MOTION_DOT": 1.66e-06, "MEAN_MOTION_DDOT": 0}, "tle": {"line1": "1 02965U 67092A   25347.71198691  .00000166  00000+0  22842-3 0  9992", "line2": "2 02965  89.2495  24.3615 0046240 231.5837 254.6409 13.53453686871108"}}, "geometry": {"type": "Point", "coordinates": [-154.49024626611367, -57.97229712732986]}}, {"type": "Feature", "properties": {"norad_id": 3133, "name": "OPS 7034 (TRANSIT 18)", "group": "nnss", "lat": 15.203718161536905, "lon": -86.36419156204006, "alt_km": 1114.373660300479, "timestamp": "2025-12-14T09:36:23.305161+00:00", "meta": {"OBJECT_NAME": "OPS 7034 (TRANSIT 18)", "OBJECT_ID": "1968-012A", "EPOCH": "2025-12-13T13:03:55.967328", "MEAN_MOTION": 13.51565835, "ECCENTRICITY": 0.00739283, "INCLINATION": 90.028, "RA_OF_ASC_NODE": 273.641, "ARG_OF_PERICENTER": 166.7988, "MEAN_ANOMALY": 7.0693, "EPHEMERIS_TYPE": 0, "CLASSIFICATION_TYPE": "U", "NORAD_CAT_ID": 3133, "ELEMENT_SET_NO": 999, "REV_AT_EPOCH": 56929, "BSTAR": 0.00020755671, "MEAN_MOTION_DOT": 1.47e-06, "MEAN_MOTION_DDOT": 0}, "tle": {"line1": "1 03133U 68012A   25347.54439777  .00000147  00000+0  20756-3 0  9998", "line2": "2 03133  90.0280 273.6410 0073928 166.7988   7.0693 13.51565835569296"}}, "geometry": {"type": "Point", "coordinates": [-86.36419156204006, 15.203718161536905]}}, {"type": "Feature", "properties": {"norad_id": 4507, "name": "NNSS 19 (TRANSIT 19)", "group": "nnss", "lat": -12.736987231630467, "lon": -125.46377588897272, "alt_km": 1004.6047215130775, "timestamp": "2025-12-14T09:36:23.305173+00:00", "meta": {"OBJECT_NAME": "NNSS 19 (TRANSIT 19)", "OBJECT_ID": "1970-067A", "EPOCH": "2025-12-13T15:53:50.989344", "MEAN_MOTION": 13.51315319, "ECCENTRICITY": 0.01704898, "INCLINATION": 90.0054, "RA_OF_ASC_NODE": 234.5346, "ARG_OF_PERICENTER": 290.6842, "MEAN_ANOMALY": 67.6105, "EPHEMERIS_TYPE": 0, "CLASSIFICATION_TYPE": "U", "NORAD_CAT_ID": 4507, "ELEMENT_SET_NO": 999, "REV_AT_EPOCH": 72234, "BSTAR": 0.00019291757, "MEAN_MOTION_DOT": 1.45e-06, "MEAN_MOTION_DDOT": 0}, "tle": {"line1": "1 04507U 70067A   25347.66239571  .00000145  00000+0  19292-3 0  9991", "line2": "2 04507  90.0054 234.5346 0170489 290.6842  67.6105 13.51315319722348"}}, "geometry": {"type": "Point", "coordinates": [-125.46377588897272, -12.736987231630467]}}, {"type": "Feature", "properties": {"norad_id": 6909, "name": "NNSS 20 (TRANSIT 20)", "group": "nnss", "lat": -0.31754747356876634, "lon": 75.03008016849003, "alt_km": 1029.2149235891156, "timestamp": "2025-12-14T09:36:23.305184+00:00", "meta": {"OBJECT_NAME": "NNSS 20 (TRANSIT 20)", "OBJECT_ID": "1973-081A", "EPOCH": "2025-12-13T16:59:16.199232", "MEAN_MOTION": 13.714347, "ECCENTRICITY": 0.01566147, "INCLINATION": 89.8562, "RA_OF_ASC_NODE": 255.0397, "ARG_OF_PERICENTER": 75.4523, "MEAN_ANOMALY": 286.3953, "EPHEMERIS_TYPE": 0, "CLASSIFICATION_TYPE": "U", "NORAD_CAT_ID": 6909, "ELEMENT_SET_NO": 999, "REV_AT_EPOCH": 80374, "BSTAR": 0.00030466094, "MEAN_MOTION_DOT": 3.11e-06, "MEAN_MOTION_DDOT": 0}, "tle": {"line1": "1 06909U 73081A   25347.70782638  .00000311  00000+0  30466-3 0  9991", "line2": "2 06909  89.8562 255.0397 0156614  75.4523 286.3953 13.71434700803742"}}, "geometry": {"type": "Point", "coordinates": [75.03008016849003, -0.31754747356876634]}}, {"type": "Feature", "properties": {"norad_id": 10457, "name": "TRANSAT", "group": "nnss", "lat": -23.422042713176356, "lon": 78.38568516654342, "alt_km": 1098.3783498675248, "timestamp": "2025-12-14T09:36:23.305195+00:00", "meta": {"OBJECT_NAME": "TRANSAT", "OBJECT_ID": "1977-106A", "EPOCH": "2025-12-13T16:32:16.523232", "MEAN_MOTION": 13.48943821, "ECCENTRICITY": 0.00254877, "INCLINATION": 89.6481, "RA_OF_ASC_NODE": 78.5634, "ARG_OF_PERICENTER": 186.7111, "MEAN_ANOMALY": 298.2128, "EPHEMERIS_TYPE": 0, "CLASSIFICATION_TYPE": "U", "NORAD_CAT_ID": 10457, "ELEMENT_SET_NO": 999, "REV_AT_EPOCH": 36756, "BSTAR": 0.00015552887, "MEAN_MOTION_DOT": 1.08e-06, "MEAN_MOTION_DDOT": 0}, "tle": {"line1": "1 10457U 77106A   25347.68908013  .00000108  00000+0  15553-3 0  9994", "line2": "2 10457  89.6481  78.5634 0025487 186.7111 298.2128 13.48943821367561"}}, "geometry": {"type": "Point", "coordinates": [78.38568516654342, -23.422042713176356]}}, {"type": "Feature", "properties": {"norad_id": 12458, "name": "NOVA 1", "group": "nnss", "lat": 84.80815455417553, "lon": 92.98704414835639, "alt_km": 1153.2001678499519, "timestamp": "2025-12-14T09:36:23.305205+00:00", "meta": {"OBJECT_NAME": "NOVA 1", "OBJECT_ID": "1981-044A", "EPOCH": "2025-12-13T13:16:17.111712", "MEAN_MOTION": 13.2327856, "ECCENTRICITY": 0.00158856, "INCLINATION": 89.8524, "RA_OF_ASC_NODE": 91.3735, "ARG_OF_PERICENTER": 101.9777, "MEAN_ANOMALY": 268.8845, "EPHEMERIS_TYPE": 0, "CLASSIFICATION_TYPE": "U", "NORAD_CAT_ID": 12458, "ELEMENT_SET_NO": 999, "REV_AT_EPOCH": 15197, "BSTAR": 0.00017841208, "MEAN_MOTION_DOT": 8.5e-07, "MEAN_MOTION_DDOT": 0}, "tle": {"line1": "1 12458U 81044A   25347.55297583  .00000085  00000+0  17841-3 0  9998", "line2": "2 12458  89.8524  91.3735 0015885 101.9777 268.8845 13.23278560151976"}}, "geometry": {"type": "Point", "coordinates": [92.98704414835639, 84.80815455417553]}}, {"type": "Feature", "properties": {"norad_id": 15362, "name": "NOVA 3", "group": "nnss", "lat": -44.0013902623705, "lon": 80.67243177608253, "alt_km": 1157.266675083395, "timestamp": "2025-12-14T09:36:23.305216+00:00", "meta": {"OBJECT_NAME": "NOVA 3", "OBJECT_ID": "1984-110A", "EPOCH": "2025-12-13T16:33:38.050272", "MEAN_MOTION": 13.23044642, "ECCENTRICITY": 0.00304347, "INCLINATION": 90.1223, "RA_OF_ASC_NODE": 80.5459, "ARG_OF_PERICENTER": 329.2051, "MEAN_ANOMALY": 206.0328, "EPHEMERIS_TYPE": 0, "CLASSIFICATION_TYPE": "U", "NORAD_CAT_ID": 15362, "ELEMENT_SET_NO": 999, "REV_AT_EPOCH": 98711, "BSTAR": 0.00013777758, "MEAN_MOTION_DOT": 6.6e-07, "MEAN_MOTION_DDOT": 0}, "tle": {"line1": "1 15362U 84110A   25347.69002373  .00000066  00000+0  13778-3 0  9992", "line2": "2 15362  90.1223  80.5459 0030434 329.2051 206.0328 13.23044642987119"}}, "geometry": {"type": "Point", "coordinates": [80.67243177608253, -44.0013902623705]}}, {"type": "Feature", "properties": {"norad_id": 15935, "name": "OSCAR 30", "group": "nnss", "lat": 64.07440717840859, "lon": -79.78592293844213, "alt_km": 1015.0009526838203, "timestamp": "2025-12-14T09:36:23.305227+00:00", "meta": {"OBJECT_NAME": "OSCAR 30", "OBJECT_ID": "1985-066A", "EPOCH": "2025-12-13T13:19:23.675232", "MEAN_MOTION": 13.36078442, "ECCENTRICITY": 0.01693925, "INCLINATION": 90.1652, "RA_OF_ASC_NODE": 99.8603, "ARG_OF_PERICENTER": 81.6317, "MEAN_ANOMALY": 290.4885, "EPHEMERIS_TYPE": 0, "CLASSIFICATION_TYPE": "U", "NORAD_CAT_ID": 15935, "ELEMENT_SET_NO": 999, "REV_AT_EPOCH": 96464, "BSTAR": 0.00017522554, "MEAN_MOTION_DOT": 1.08e-06, "MEAN_MOTION_DDOT": 0}, "tle": {"line1": "1 15935U 85066A   25347.55513513  .00000108  00000+0  17523-3 0  9996", "line2": "2 15935  90.1652  99.8603 0169392  81.6317 290.4885 13.36078442964642"}}, "geometry": {"type": "Point", "coordinates": [-79.78592293844213, 64.07440717840859]}}, {"type": "Feature", "properties": {"norad_id": 15936, "name": "OSCAR 24", "group": "nnss", "lat": -11.226052879889288, "lon": -87.70090755666946, "alt_km": 1160.7304520853531, "timestamp": "2025-12-14T09:36:23.305237+00:00", "meta": {"OBJECT_NAME": "OSCAR 24", "OBJECT_ID": "1985-066B", "EPOCH": "2025-12-13T17:04:02.368992", "MEAN_MOTION": 13.3593593, "ECCENTRICITY": 0.0170463, "INCLINATION": 90.179, "RA_OF_ASC_NODE": 92.3225, "ARG_OF_PERICENTER": 87.6279, "MEAN_ANOMALY": 29.2531, "EPHEMERIS_TYPE": 0, "CLASSIFICATION_TYPE": "U", "NORAD_CAT_ID": 15936, "ELEMENT_SET_NO": 999, "REV_AT_EPOCH": 96656, "BSTAR": 0.00015401786, "MEAN_MOTION_DOT": 9.6e-07, "MEAN_MOTION_DDOT": 0}, "tle": {"line1": "1 15936U 85066B   25347.71113853  .00000096  00000+0  15402-3 0  9998", "line2": "2 15936  90.1790  92.3225 0170463  87.6279  29.2531 13.35935930966560"}}, "geometry": {"type": "Point", "coordinates": [-87.70090755666946, -11.226052879889288]}}]}